H1 CPF 01  gfz 2022 02 07 13  5382 tandemx   
H2 1003001  6202 36605    2022 02 07 12 59 42 2022 02 12 00 00 42   120 1 1  0 0 0
H9
10 0 59618  59742.000000  0   -6414114.020  -2514697.045    -17984.749
10 0 59618  59862.000000  0   -6420327.578  -2326302.900   -920467.116
10 0 59618  59982.000000  0   -6310765.607  -2098183.341  -1806760.294
10 0 59618  60102.000000  0   -6086783.416  -1836364.458  -2661299.293
10 0 59618  60222.000000  0   -5751854.143  -1547416.333  -3469107.107
10 0 59618  60342.000000  0   -5311505.495  -1238297.659  -4216059.933
10 0 59618  60462.000000  0   -4773217.199   -916195.801  -4889133.291
10 0 59618  60582.000000  0   -4146282.069   -588365.707  -5476625.044
10 0 59618  60702.000000  0   -3441633.943   -261972.070  -5968350.837
10 0 59618  60822.000000  0   -2671648.336     56062.047  -6355809.563
10 0 59618  60942.000000  0   -1849920.505    359196.606  -6632318.385
10 0 59618  61062.000000  0    -991024.067    641403.215  -6793116.944
10 0 59618  61182.000000  0    -110255.556    897280.555  -6835439.962
10 0 59618  61302.000000  0     776631.405   1122154.401  -6758558.563
10 0 59618  61422.000000  0    1653700.301   1312159.956  -6563793.852
10 0 59618  61542.000000  0    2505112.833   1464307.763  -6254497.525
10 0 59618  61662.000000  0    3315410.213   1576530.463  -5835999.885
10 0 59618  61782.000000  0    4069790.194   1647709.574  -5315526.069
10 0 59618  61902.000000  0    4754377.216   1677682.849  -4702083.330
10 0 59618  62022.000000  0    5356482.478   1667231.889  -4006316.330
10 0 59618  62142.000000  0    5864846.129   1618049.214  -3240331.612
10 0 59618  62262.000000  0    6269857.427   1532685.470  -2417494.904
10 0 59618  62382.000000  0    6563748.946   1414478.090  -1552202.145
10 0 59618  62502.000000  0    6740757.376   1267462.173   -659626.936
10 0 59618  62622.000000  0    6797246.474   1096264.960    244549.768
10 0 59618  62742.000000  0    6731787.124    905987.723   1144421.685
10 0 59618  62862.000000  0    6545195.973    702077.412   2024144.188
10 0 59618  62982.000000  0    6240527.977    490190.176   2868223.590
10 0 59618  63102.000000  0    5823022.484    276051.613   3661797.688
10 0 59618  63222.000000  0    5300005.994     65316.809   4390903.943
10 0 59618  63342.000000  0    4680754.494   -136564.544   5042727.105
10 0 59618  63462.000000  0    3976319.349   -324477.676   5605826.020
10 0 59618  63582.000000  0    3199318.929   -493761.906   6070330.948
10 0 59618  63702.000000  0    2363704.775   -640316.230   6428111.240
10 0 59618  63822.000000  0    1484505.871   -760691.083   6672911.837
10 0 59618  63942.000000  0     577554.430   -852164.036   6800457.957
10 0 59618  64062.000000  0    -340801.600   -912797.757   6808524.228
10 0 59618  64182.000000  0   -1253992.654   -941479.690   6696969.945
10 0 59618  64302.000000  0   -2145525.080   -937942.500   6467740.809
10 0 59618  64422.000000  0   -2999277.156   -902764.689   6124836.922
10 0 59618  64542.000000  0   -3799790.672   -837351.680   5674249.091
10 0 59618  64662.000000  0   -4532554.844   -743898.430   5123861.181
10 0 59618  64782.000000  0   -5184276.041   -625333.683   4483318.105
10 0 59618  64902.000000  0   -5743127.001   -485246.487   3763860.956
10 0 59618  65022.000000  0   -6198970.066   -327796.601   2978132.210
10 0 59618  65142.000000  0   -6543550.914   -157610.600   2139955.236
10 0 59618  65262.000000  0   -6770658.858     20334.482   1264088.724
10 0 59618  65382.000000  0   -6876246.837    200836.064    365960.642
10 0 59618  65502.000000  0   -6858508.201    378596.967   -538611.770
10 0 59618  65622.000000  0   -6717907.791    548359.404  -1433709.985
10 0 59618  65742.000000  0   -6457166.500    705037.768  -2303602.285
10 0 59618  65862.000000  0   -6081203.374    843847.201  -3133026.527
10 0 59618  65982.000000  0   -5597032.750    960425.198  -3907464.797
10 0 59618  66102.000000  0   -5013619.448   1050942.419  -4613398.043
10 0 59618  66222.000000  0   -4341699.787   1112200.331  -5238538.703
10 0 59618  66342.000000  0   -3593572.187   1141713.569  -5772037.214
10 0 59618  66462.000000  0   -2782863.382   1137775.275  -6204660.415
10 0 59618  66582.000000  0   -1924275.168   1099504.148  -6528939.840
10 0 59618  66702.000000  0   -1033316.108   1026874.370  -6739289.541
10 0 59618  66822.000000  0    -126023.662    920726.124  -6832090.996
10 0 59618  66942.000000  0     781317.421    782757.612  -6805747.845
10 0 59618  67062.000000  0    1672459.803    615498.419  -6660712.858
10 0 59618  67182.000000  0    2531479.174    422264.250  -6399481.264
10 0 59618  67302.000000  0    3343053.266    207094.355  -6026552.310
10 0 59618  67422.000000  0    4092732.028    -25328.263  -5548358.975
10 0 59618  67542.000000  0    4767193.680   -269772.769  -4973167.557
10 0 59618  67662.000000  0    5354486.111   -520570.388  -4310947.163
10 0 59618  67782.000000  0    5844246.610   -771737.327  -3573206.777
10 0 59618  67902.000000  0    6227894.797  -1017107.999  -2772803.757
10 0 59618  68022.000000  0    6498795.159  -1250476.316  -1923725.397
10 0 59618  68142.000000  0    6652384.566  -1465741.150  -1040845.975
10 0 59618  68262.000000  0    6686260.006  -1657052.539   -139664.029
10 0 59618  68382.000000  0    6600224.728  -1818955.213    763974.717
10 0 59618  68502.000000  0    6396289.959  -1946525.609   1654164.286
10 0 59618  68622.000000  0    6078631.666  -2035498.821   2515227.131
10 0 59618  68742.000000  0    5653503.845  -2082381.790   3331999.553
10 0 59618  68862.000000  0    5129109.298  -2084549.603   4090105.765
10 0 59618  68982.000000  0    4515433.043  -2040323.155   4776214.407
10 0 59618  69102.000000  0    3824044.454  -1949025.599   5378274.023
10 0 59618  69222.000000  0    3067870.348  -1811017.769   5885724.780
10 0 59618  69342.000000  0    2260944.310  -1627710.776   6289679.137
10 0 59618  69462.000000  0    1418140.773  -1401556.522   6583071.540
10 0 59618  69582.000000  0     554896.825  -1136016.194   6760776.340
10 0 59618  69702.000000  0    -313072.559   -835506.608   6819691.583
10 0 59618  69822.000000  0   -1170060.079   -505326.183   6758788.577
10 0 59618  69942.000000  0   -2000648.816   -151561.796   6579128.519
10 0 59618  70062.000000  0   -2789988.185    219022.886   6283845.403
10 0 59618  70182.000000  0   -3524059.509    599115.594   5878095.777
10 0 59618  70302.000000  0   -4189927.764    980997.841   5368974.862
10 0 59618  70422.000000  0   -4775974.916   1356699.460   4765398.603
10 0 59618  70542.000000  0   -5272109.955   1718163.311   4077953.089
10 0 59618  70662.000000  0   -5669950.984   2057415.933   3318712.187
10 0 59618  70782.000000  0   -5962975.030   2366740.712   2501027.301
10 0 59618  70902.000000  0   -6146633.363   2638849.765   1639292.029
10 0 59618  71022.000000  0   -6218429.008   2867050.676    748684.501
10 0 59618  71142.000000  0   -6177952.012   3045403.115   -155107.704
10 0 59618  71262.000000  0   -6026872.552   3168861.332  -1056172.299
10 0 59618  71382.000000  0   -5768892.173   3233398.496  -1938661.408
10 0 59618  71502.000000  0   -5409654.121   3236110.733  -2787079.386
10 0 59618  71622.000000  0   -4956614.088   3175296.880  -3586561.160
10 0 59618  71742.000000  0   -4418877.100   3050513.082  -4323135.250
10 0 59618  71862.000000  0   -3807004.906   2862601.153  -4983965.883
10 0 59618  71982.000000  0   -3132799.713   2613690.439  -5557570.652
10 0 59618  72102.000000  0   -2409070.852   2307174.625  -6034010.333
10 0 59618  72222.000000  0   -1649387.669   1947664.060  -6405051.683
10 0 59618  72342.000000  0    -867823.317   1540913.662  -6664297.471
10 0 59618  72462.000000  0     -78697.051   1093729.726  -6807285.694
10 0 59618  72582.000000  0     703682.487    613856.639  -6831557.486
10 0 59618  72702.000000  0    1465270.256    109845.633  -6736696.684
10 0 59618  72822.000000  0    2192532.327   -409094.642  -6524335.698
10 0 59618  72942.000000  0    2872680.548   -933261.824  -6198130.126
10 0 59618  73062.000000  0    3493894.716  -1452636.498  -5763702.456
10 0 59618  73182.000000  0    4045526.967  -1957068.528  -5228555.057
10 0 59618  73302.000000  0    4518288.025  -2436473.082  -4601952.451
10 0 59618  73422.000000  0    4904409.143  -2881031.180  -3894771.304
10 0 59618  73542.000000  0    5197777.140  -3281390.302  -3119321.386
10 0 59618  73662.000000  0    5394040.662  -3628861.488  -2289138.405
10 0 59618  73782.000000  0    5490683.179  -3915608.195  -1418750.557
10 0 59618  73902.000000  0    5487060.282  -4134822.414   -523424.039
10 0 59618  74022.000000  0    5384400.228  -4280883.409    381108.687
10 0 59618  74142.000000  0    5185766.645  -4349494.996   1278932.593
10 0 59618  74262.000000  0    4895982.676  -4337796.440   2154239.216
10 0 59618  74382.000000  0    4521519.870  -4244443.348   2991613.955
10 0 59618  74502.000000  0    4070354.940  -4069657.624   3776314.513
10 0 59618  74622.000000  0    3551798.096  -3815246.436   4494536.151
10 0 59618  74742.000000  0    2976295.723  -3484588.028   5133657.848
10 0 59618  74862.000000  0    2355214.957  -3082585.216   5682463.270
10 0 59618  74982.000000  0    1700614.474  -2615588.924   6131335.313
10 0 59618  75102.000000  0    1025005.975  -2091293.197   6472418.904
10 0 59618  75222.000000  0     341112.774  -1518604.952   6699752.224
10 0 59618  75342.000000  0    -338370.607   -907490.225   6809365.024
10 0 59618  75462.000000  0   -1001013.272   -268799.098   6799343.274
10 0 59618  75582.000000  0   -1634874.240    385926.782   6669860.255
10 0 59618  75702.000000  0   -2228716.822   1044662.196   6423173.824
10 0 59618  75822.000000  0   -2772207.803   1695118.210   6063589.668
10 0 59618  75942.000000  0   -3256098.350   2324970.649   5597391.191
10 0 59618  76062.000000  0   -3672384.676   2922094.448   5032736.604
10 0 59618  76182.000000  0   -4014445.056   3474799.233   4379521.853
99
